id,CountryID,City,DistrictID,District,Name,Addr,Remark,InstantCashDeposit,RMBCashWithrawal,ChequeDeposit,PassbookUpdate,BarrierFree,ATM1,ATM2,ATM3,ATM4,ATM5,ATM6,ATM7,ATM8,ATM9,ATM10,lat,lng
10001,Hong Kong,Hong Kong Island,Hong Kong Island Central and Western,Central and Western,Admiralty - Central Government Offices,"(Restricted area) Area A, 1/F, Central Government Offices, 2 Tim Mei Avenue, Admiralty",Service hours: 24 hours,,Y,,,Y,6296,,,,,,,,,,22.280457,114.165213
10002,Hong Kong,Hong Kong Island,Hong Kong Island Central and Western,Central and Western,Admiralty - United Centre,"Shop 1007 & 1008, United Centre, 95 Queensway, Admiralty",Service hours: 6:00 am - 10:00 pm,Y,,Y,Y,Y,1366,1367,,,,,,,,,22.278578,114.165362
10003,Hong Kong,Hong Kong Island,Hong Kong Island Central and Western,Central and Western,Central - Des Voeux Road Central,"10 Des Voeux Road Central, Central","Service hours: Monday - Friday (9:00 am - 5:00 pm), Sat (9:00 am - 1:00 pm)",Y,Y,,Y,,0147,0148,0149,,,,,,,,22.280903,114.15821
10004,Hong Kong,Hong Kong Island,Hong Kong Island Central and Western,Central and Western,Central - Entertainment Building,"Open Space outside the Shop 2E & F, 2/F, Entertainment Building, 30 Queen's Road Central, Central",Service hours: 24 hours,,,,,,7716,,,,,,,,,,22.281551,114.156375
10005,Hong Kong,Hong Kong Island,Hong Kong Island Central and Western,Central and Western,Mid-Levels - Bonham Road,"Shop No. 1-3, Ka Fu Building, 19-27 Bonham Road, Mid-levels",Service hours: 24 hours,Y,Y,Y,Y,,0686,0687,,,,,,,,,22.284571,114.142538
10006,Hong Kong,Hong Kong Island,Hong Kong Island Central and Western,Central and Western,Mid-Levels - Caine Road,"Shop C, G/F, Cameo Court, 63-69 Caine Road, Mid-levels",Service hours: 24 hours,Y,,Y,Y,,0846,,,,,,,,,,22.281327,114.152223
10007,Hong Kong,Hong Kong Island,Hong Kong Island Central and Western,Central and Western,Pokfulam - The University of Hong Kong,"Shop P0030, G/F, Centennial Campus, The University of Hong Kong, Pok Fu Lam",Service hours: 24 hours,Y,Y,Y,Y,Y,0766,0767,,,,,,,,,22.283199,114.134286
10008,Hong Kong,Hong Kong Island,Hong Kong Island Central and Western,Central and Western,Sheung Wan - Shun Tak Centre,"Shops 296A and 296B, 2/F, Shun Tak Centre, 200 Connaught Road Central, Sheung Wan",Service hours: 24 hours,Y,Y,Y,Y,Y,1476,1477,,,,,,,,,22.287926,114.151853
10009,Hong Kong,Hong Kong Island,Hong Kong Island Central and Western,Central and Western,Western District - Shek Tong Tsui,"Shop I & J, G/F, Sun On Building, 484-496 Queen's Road West",Service hours: 24 hours,Y,Y,Y,,,0776,,,,,,,,,,22.285794,114.135473
10010,Hong Kong,Hong Kong Island,Hong Kong Island Eastern,Eastern,Chai Wan - Chai Wan Road,"G/F, 345 Chai Wan Road, Chai Wan",Service hours: 24 hours,Y,,Y,Y,,0446,,,,,,,,,,22.264279,114.240392
10011,Hong Kong,Hong Kong Island,Hong Kong Island Eastern,Eastern,Chai Wan - Hing Wah Plaza,"ATM 2, 1/F, Hing Wah Plaza, Chai Wan",Service hours: 5:00 am - 2:00 am,,Y,,,,6476,,,,,,,,,,22.262321,114.235965
10012,Hong Kong,Hong Kong Island,Hong Kong Island Eastern,Eastern,North Point - King's Road,"G/F, 326-328 King's Road, North Point",Service hours: 24 hours,Y,,Y,Y,,0336,0337,,,,,,,,,22.290335,114.196608
10013,Hong Kong,Hong Kong Island,Hong Kong Island Eastern,Eastern,Quarry Bay - King's Road,"1035 King's Road, Quarry Bay",Service hours: 24 hours,Y,Y,,,,0306,0307,,,,,,,,,22.284734,114.213487
10014,Hong Kong,Hong Kong Island,Hong Kong Island Eastern,Eastern,Quarry Bay - King's Road,"Shop G2-G4, G/F, Fok Cheong Building, 1032-1044 King's Road, Quarry Bay",Service hours: 24 hours,Y,Y,Y,Y,,6276,6277,,,,,,,,,22.284495,114.212433
10015,Hong Kong,Hong Kong Island,Hong Kong Island Eastern,Eastern,Sai Wan Ho - Hing Tung Shopping Centre,"ATM 2, G/F, Hing Tung Shopping Centre, Sai Wan Ho",Service hours: 24 hours,,,,,,6486,,,,,,,,,,22.280688,114.220048
10016,Hong Kong,Hong Kong Island,Hong Kong Island Eastern,Eastern,Shaukiwan - Oi Tung Shopping Centre,"ATM No.2, 1/F, Oi Tung Shopping Centre, Oi Tung Estate, Shaukiwan",Service hours: 6:00 am - 12:00 am,,,,,,6406,,,,,,,,,,22.280811,114.228119
10017,Hong Kong,Hong Kong Island,Hong Kong Island Eastern,Eastern,Shaukiwan - Shaukiwan Road,"G/F, Ka Fook Building, Nos. 289-293 Shaukiwan Road, Shaukiwan",Service hours: 24 hours,Y,Y,Y,,,0266,,,,,,,,,,22.278712,114.22654
10018,Hong Kong,Hong Kong Island,Hong Kong Island Eastern,Eastern,Taikoo Shing - Yiu Sing Mansion,"Shop No. G1010-1011, Yiu Sing Mansion, Taikoo Shing, Quarry Bay",Service hours: 24 hours,Y,,Y,,,0556,,,,,,,,,,22.286341,114.218712
10019,Hong Kong,Hong Kong Island,Hong Kong Island Southern,Southern,Aberdeen - Aberdeen Main Road,"162-164 Aberdeen Main Road, Aberdeen",Service hours: 24 hours,Y,Y,Y,,,0196,,,,,,,,,,22.248583,114.155743
10020,Hong Kong,Hong Kong Island,Hong Kong Island Wanchai,Wanchai,Causeway Bay - SOGO Department Store,"No. 555 Hennessy Road, SOGO Department Store (Facing East Point Road), Causeway Bay",Service hours: 24 hours,,,,,,7256,,,,,,,,,,22.280426,114.184428
10021,Hong Kong,Hong Kong Island,Hong Kong Island Wanchai,Wanchai,Causeway Bay - Yee Wo Street,"G/F, Ying Kong Mansion, 2-6 Yee Wo Street, Causeway Bay",Service hours: 24 hours,Y,Y,Y,Y,,0186,0187,,,,,,,,,22.2798856,114.1848619
10022,Hong Kong,Hong Kong Island,Hong Kong Island Wanchai,Wanchai,Happy Valley - Sing Woo Road,"G/F, 5-7 Sing Woo Road, Happy Valley",Service hours: 24 hours,Y,,Y,Y,Y,0346,,,,,,,,,,22.269788,114.185048
10023,Hong Kong,Hong Kong Island,Hong Kong Island Wanchai,Wanchai,Wanchai - Gloucester Road,"Shop 1, G/F, Bank of East Asia Harbour View Centre, 56 Gloucester Road",Service hours: 24 hours,Y,Y,Y,Y,Y,1296,1297,,,,,,,,,22.279068,114.171092
10024,Hong Kong,Hong Kong Island,Hong Kong Island Wanchai,Wanchai,Wanchai - Harbour Centre,"Showcase No.1, 1/F, Harbour Centre, ",Service hours: 7:30 am - 11:30 pm,,,,,,7596,,,,,,,,,,22.280851,114.175607
10025,Hong Kong,Hong Kong Island,Hong Kong Island Wanchai,Wanchai,Wanchai - Hennessy Road,"G/F, Eastern Commercial Centre, 399 Hennessy Road",Service hours: 24 hours,Y,,Y,Y,,0386,0387,,,,,,,,,22.279138,114.180414
10026,Hong Kong,Hong Kong Island,Hong Kong Island Wanchai,Wanchai,Wanchai - Hennessy Road,"Shop Nos A-C, G/F, Easey Commercial Building, 253-261 Hennessy Road",Service hours: 24 hours,Y,Y,Y,Y,,0216,0217,0218,,,,,,,,22.278168,114.176374
10027,Hong Kong,Hong Kong Island,Hong Kong Island Wanchai,Wanchai,Wanchai - Queen's Road East,"Shops B & C, G/F, 228 Queen's Road East",Service hours: 24 hours,Y,Y,Y,Y,,0926,0927,,,,,,,,,22.274704,114.172976
10028,Hong Kong,Kowloon,Kowloon Kowloon City,Kowloon City,Homantin - Homantin Plaza,"ATM No.1, Level 2, Homantin Plaza, Ho Man Tin",Service hours: 24 hours,,,,,,6626,,,,,,,,,,22.315975,114.18189
10029,Hong Kong,Kowloon,Kowloon Kowloon City,Kowloon City,Homantin - Waterloo Road,"Shop A, G/F, Richland House, 77B & 77C Waterloo Road, Ho Man Tin",Service hours: 24 hours,Y,,Y,Y,,0916,,,,,,,,,,22.319762,114.176236
10030,Hong Kong,Kowloon,Kowloon Yau Tsim Mong,Yau Tsim Mong,Hung Hom - Hong Kong Polytechnic University,"Room VA 210, Shaw Amenities Building, Hong Kong Polytechnic University, Hung Hom",Service hours: 24 hours,Y,Y,Y,Y,Y,1326,1327,,,,,,,,,22.304506,114.179617
10031,Hong Kong,Kowloon,Kowloon Kowloon City,Kowloon City,Hung Hom - Ma Tau Wei Road,"G/F, 23-27 Ma Tau Wei Road, Hung Hom",Service hours: 24 hours,Y,,Y,Y,,0356,0357,,,,,,,,,22.309289,114.187697
10032,Hong Kong,Kowloon,Kowloon Kowloon City,Kowloon City,Hung Hom - The Metropolis,"Entrance Lobby of The Footbridge 3 of Level 5, The Metropolis, 6 Metropolis Drive, Hung Hom",Service hours: 24 hours,,,,,,7346,,,,,,,,,,22.302966,114.183308
10033,Hong Kong,Kowloon,Kowloon Kowloon City,Kowloon City,Hung Hom - Whampoa Garden,"Shops 1-3, G/F, Site 9, Whampoa Garden, Hung Hom",Service hours: 24 hours,Y,,Y,,,0936,,,,,,,,,,22.302797,114.190849
10034,Hong Kong,Kowloon,Kowloon Kowloon City,Kowloon City,Kowloon City - Nga Tsin Wai Road,"Shop E & F, 45-45A, Nga Tsin Wai Road, Kowloon City",Service hours: 24 hours,Y,,Y,,,1126,,,,,,,,,,22.328839,114.188342
10035,Hong Kong,Kowloon,Kowloon Sham Shui Po,Sham Shui Po,Kowloon Tong - Festival Walk,"Unit MTR07, Level MTR, Festival Walk, 80 Tat Chee Avenue, Kowloon Tong",Service hours: 24 hours,Y,Y,Y,Y,Y,1006,1007,,,,,,,,,22.337357,114.174384
10036,Hong Kong,Kowloon,Kowloon Kowloon City,Kowloon City,Kowloon Tong - Hong Kong Baptist University,"Unit G02, G/F, Jockey Club Academic Community Centre, Hong Kong Baptist University, 9 Baptist University Road, Kowloon Tong",Service hours: 24 hours,Y,,Y,,Y,1046,,,,,,,,,,22.338526,114.181824
10037,Hong Kong,Kowloon,Kowloon Kwun Tong,Kwun Tong,Choi Hung - Infinity Eight,"Shop G04, G/F, Infinity Eight, No.8 Clear Water Bay Road, Choi Hung",Service hours: 24 hours,,Y,,,,6166,6167,,,,,,,,,22.333906,114.20982
10038,Hong Kong,Kowloon,Kowloon Kwun Tong,Kwun Tong,Kowloon Bay - Telford Plaza,"ATM No. 3, Level 1, Telford Plaza 1, Kowloon Bay",Service hours: 24 hours,,,,,,6206,,,,,,,,,,22.324031,114.21291
10039,Hong Kong,Kowloon,Kowloon Kwun Tong,Kwun Tong,Kowloon Bay - Telford Plaza,"Shop F12B, Level 1, Telford Plaza 1, Kowloon Bay",Service hours: 24 hours,Y,Y,Y,Y,,0997,,,,,,,,,,22.322175,114.212588
10040,Hong Kong,Kowloon,Kowloon Kwun Tong,Kwun Tong,Kwun Tong - Hiu Lai Shopping Centre,"Open Space near to Shop No 209A, Hiu Lai Shopping Centre, Hiu Lai Court, Kwun Tong",Service hours: 24 hours,,,,,,7606,,,,,,,,,,22.320278,114.228921
10041,Hong Kong,Kowloon,Kowloon Kwun Tong,Kwun Tong,Kwun Tong - Hoi Yuen Road,"Unit 1, G/F, Hewlett Centre, 54 Hoi Yuen Road, Kwun Tong",Service hours: 24 hours,Y,,Y,Y,,0856,0857,,,,,,,,,22.309498,114.224017
10042,Hong Kong,Kowloon,Kowloon Kwun Tong,Kwun Tong,Kwun Tong - 133 Wai Yip Street,"G/F, 133 Wai Yip Street, Kwun Tong",Service hours: 24 hours,Y,Y,Y,Y,Y,0316,,,,,,,,,,22.31391,114.217735
10043,Hong Kong,Kowloon,Kowloon Kwun Tong,Kwun Tong,Kwun Tong - Laguna City,"Shop 38, G/F, Laguna Plaza, Laguna City, Kwun Tong",Service hours: 24 hours,Y,Y,Y,Y,Y,0866,0867,,,,,,,,,22.306801,114.228054
10044,Hong Kong,Kowloon,Kowloon Kwun Tong,Kwun Tong,Kwun Tong - Millennium City 5,"Shop 1, G/F, Millennium City 5, 418 Kwun Tong Road, Kwun Tong",Service hours: 7:00 am - 2:00 am,Y,Y,Y,Y,Y,1376,1377,1378,,,,,,,,22.312401,114.225222
10045,Hong Kong,Kowloon,Kowloon Kwun Tong,Kwun Tong,Kwun Tong - Millennium City 5,"Opposite to Shop nos. UC-36, Upper Concourse Level, Millennium City 5, 418 Kwun Tong Road, Kwun Tong",Service hours: 24 hours,,Y,,,Y,7396,7397,,,,,,,,,22.31247,114.225018
10046,Hong Kong,Kowloon,Kowloon Kwun Tong,Kwun Tong,Kwun Tong - Po Tat Estate,"Open Space beneath the escalator facing shop 9, G/F, Po Tat Shopping Centre, Po Tat Estate, Sau Mau Ping",Service hours: 6:00 am - 11:30 pm,,,,,,7426,,,,,,,,,,22.317848,114.23613
10047,Hong Kong,Kowloon,Kowloon Kwun Tong,Kwun Tong,Kwun Tong - Sau Mau Ping Shopping Centre,"ATM No.4, 2/F, Sau Mau Ping Shopping Centre, 101 Sau Mau Ping Road, Kwun Tong",Service hours: 6:00 am - 11:00 pm,,,,,,6386,,,,,,,,,,22.319088,114.231443
10048,Hong Kong,Kowloon,Kowloon Kwun Tong,Kwun Tong,Kwun Tong - Shun Lee Commercial Centre,"ATM 2, Podium Floor, Shun Lee Commercial Centre, Kwun Tong",Service hours: 24 hours,,,,,,6506,,,,,,,,,,22.329832,114.226752
10049,Hong Kong,Kowloon,Kowloon Kwun Tong,Kwun Tong,Lam Tin - Kai Tin Shopping Centre,"ATM 4, 1/F, Kai Tin Shopping Centre, Lam Tin",Service hours: 6:00 am - 1:00 am,,,,,,6466,,,,,,,,,,22.308347,114.23466
10050,Hong Kong,Kowloon,Kowloon Kwun Tong,Kwun Tong,Lam Tin - Kwong Tin Shopping Centre,"ATM 2, 1/F, Kwong Tin Shopping Centre, Lam Tin",Service hours: 24 hours,,,,,,6496,,,,,,,,,,22.302562,114.240078
10051,Hong Kong,Kowloon,Kowloon Kwun Tong,Kwun Tong,Ngau Tau Kok - Lok Wah Estate,"2/F, Lok Wah (North) Shopping Centre, 70 Chun Wah Road, Ngau Tau Kok",Service hours: 24 hours,,,,,,7626,,,,,,,,,,22.322008,114.219939
10052,Hong Kong,Kowloon,Kowloon Kwun Tong,Kwun Tong,Yau Tong - Lei Yue Mun Plaza,"ATM No. 3, G/F, Lei Yue Mun Plaza, Yau Mei Court, Yau Tong",Service hours: 5:30 am - 2:00 am,,Y,,,,6446,,,,,,,,,,22.296285,114.239281
10053,Hong Kong,Kowloon,Kowloon Kwun Tong,Kwun Tong,Yau Tong - MTR Yau Tong Station,"ATM 2, MTR Yau Tong Station (near Exit B1 Yau Lai Estate/ Shopping Centre), Yau Tong",Service hours: 6:00 am - 1:00 am,,,,,,6706,,,,,,,,,,22.298439,114.236781
10054,Hong Kong,Kowloon,Kowloon Sham Shui Po,Sham Shui Po,Cheung Sha Wan - Castle Peak Road,"UG/F, One Madison, 305 Castle Peak Road, Cheung Sha Wan","Service hours: Monday - Friday (9:00 am - 5:00 pm), Sat (9:00 am - 1:00 pm)",Y,,Y,Y,Y,0277,,,,,,,,,,22.33793,114.156847
10055,Hong Kong,Kowloon,Kowloon Sham Shui Po,Sham Shui Po,Cheung Sha Wan - Castle Peak Road,"G/F, One Madison, 305 Castle Peak Road, Cheung Sha Wan",Service hours: 24 hours,,Y,,,,0276,0278,,,,,,,,,22.33793,114.156847
10056,Hong Kong,Kowloon,Kowloon Sham Shui Po,Sham Shui Po,Cheung Sha Wan - Cheung Sha Wan Plaza,"Shop 117-118, 1/F, Cheung Sha Wan Plaza, 833 Cheung Sha Wan Road, Cheung Sha Wan",Service hours: 24 hours,Y,Y,Y,Y,Y,1466,1467,1468,,,,,,,,22.337243,114.148972
10057,Hong Kong,Kowloon,Kowloon Sham Shui Po,Sham Shui Po,Lai Chi Kok - Pacifica Mall,"ATM Area A on Second Floor of Pacifica Mall, 9 Sham Shing Road, Lai Chi Kok",Service hours: 24 hours,,,,,,7666,,,,,,,,,,22.334107,114.149613
10058,Hong Kong,Kowloon,Kowloon Sham Shui Po,Sham Shui Po,Mei Foo - Mei Foo Sun Chuen,"Shop No. N57, G/F, Mount Sterling Mall, Mei Foo Sun Chuen, Mei Foo",Service hours: 24 hours,Y,,Y,Y,,0736,,,,,,,,,,22.337585,114.139321
10059,Hong Kong,Kowloon,Kowloon Sham Shui Po,Sham Shui Po,Mei Foo - Mei Foo Sun Chuen,"Shop No. 88, 1/F, Mount Sterling Mall, Mei Foo Sun Chuen, Mei Foo",Service hours: 24 hours,,,,,,0737,,,,,,,,,,22.337585,114.139321
10060,Hong Kong,Kowloon,Kowloon Sham Shui Po,Sham Shui Po,Tai Hang Tung - Woh Chai Street,"G/F, 13 Woh Chai Street, Tai Hang Tung, Shek Kip Mei",Service hours: 24 hours,Y,,Y,,,0476,,,,,,,,,,22.331544,114.170401
10061,Hong Kong,Kowloon,Kowloon Wong Tai Sin,Wong Tai Sin,Lok Fu - Lok Fu Plaza,"Shop L217- L223, G/F Lok Fu Plaza, Wang Tau Hom",Service hours: 24 hours,Y,,Y,Y,Y,0646,,,,,,,,,,22.338884,114.187042
10062,Hong Kong,Kowloon,Kowloon Wong Tai Sin,Wong Tai Sin,San Po Kong - Shung Ling Street,"G/F, 65 Shung Ling Street, San Po Kong",Service hours: 24 hours,,,,,,0256,,,,,,,,,,22.334889,114.195436
10063,Hong Kong,Kowloon,Kowloon Wong Tai Sin,Wong Tai Sin,Wong Tai Sin - Tsz Wan Shan Shopping Centre,"Shop No. 540, 5/F, Tsz Wan Shan Shopping Centre, 23 Yuk Wah Street, Wong Tai Sin",Service hours: 6:30 am - 12:00 am,,,,,Y,7516,7517,,,,,,,,,22.348188,114.200566
10065,Hong Kong,Kowloon,Kowloon Yau Tsim Mong,Yau Tsim Mong,Mong Kok - Wai Fung Plaza,"Units 703-706, 7/F, Wai Fung Plaza,  664 Nathan Road, Mongkok","Service hours: Monday - Friday (9:00 am - 5:00 pm), Sat (9:00 am - 1:00 pm)",Y,,Y,Y,Y,0156,,,,,,,,,,22.319128,114.1697459
10066,Hong Kong,Kowloon,Kowloon Yau Tsim Mong,Yau Tsim Mong,Mong Kok - 722 Nathan Road,"720-722 Nathan Road, Mongkok",Service hours: 24 hours,Y,Y,Y,Y,,1286,,,,,,,,,,22.321073,114.16924
10068,Hong Kong,Kowloon,Kowloon Yau Tsim Mong,Yau Tsim Mong,Prince Edward - Prince Edward Road West,"Near the main entrance of G/F, Mongkok City Building, 154-158 Prince Edward Road West, Prince Edward",Service hours: 24 hours,,,,,,7506,,,,,,,,,,22.324563,114.170933
10069,Hong Kong,Kowloon,Kowloon Yau Tsim Mong,Yau Tsim Mong,Tsim Sha Tsui East - East Ocean Centre,"G3- G5, G/F, East Ocean Centre, 98 Granville Road, Tsim Sha Tsui",Service hours: 24 hours,Y,,Y,,,0536,,,,,,,,,,22.300266,114.177694
10070,Hong Kong,Kowloon,Kowloon Yau Tsim Mong,Yau Tsim Mong,Tsim Sha Tsui - iSQUARE,"Open space outside Shop UG01, Upper Ground Floor, iSQUARE, 63 Nathan Road, Tsim Sha Tsui",Service hours: 10:30 am - 10:30 pm,Y,,,Y,Y,7726,,,,,,,,,,22.297016,114.171885
10071,Hong Kong,Kowloon,Kowloon Yau Tsim Mong,Yau Tsim Mong,Tsim Sha Tsui - Kowloon Station Elements,"Shop 1002, 1/F, Elements, 1 Austin Road West, Tsim Sha Tsui",Service hours: 24 hours,Y,Y,,,Y,6286,6287,,,,,,,,,22.305112,114.162095
10072,Hong Kong,Kowloon,Kowloon Yau Tsim Mong,Yau Tsim Mong,Tsim Sha Tsui - Carnarvon Plaza,"1/F, Carnarvon Plaza, 20 Carnarvon Road, Tsim Sha Tsui, Kowloon","Service hours: Monday - Friday (9:00 am - 5:00 pm), Sat (9:00 am - 1:00 pm)",Y,,Y,Y,Y,0238,,,,,,,,,,22.2991131,114.1730584
10073,Hong Kong,Kowloon,Kowloon Yau Tsim Mong,Yau Tsim Mong,West Kowloon - Olympian City,"Shop UG46 & 47, Upper Ground Floor, Olympian City 2, 18 Hoi Ting Road, Tai Kok Tsui",Service hours: 24 hours,Y,Y,Y,,Y,1306,1307,,,,,,,,,22.316656,114.16176
10074,Hong Kong,Kowloon,Kowloon Yau Tsim Mong,Yau Tsim Mong,Yaumatei - 526 Nathan Road,"G/F, 526 Nathan Road, Yau Ma Tei",Service hours: 24 hours,Y,Y,Y,,,1136,,,,,,,,,,22.312801,114.170788
10075,Hong Kong,New Territories,New Territories Kwai Tsing,Kwai Tsing,Kwai Chung -  Metroplaza,"Shop 140-141, Level 1, Metroplaza, 223 Hing Fong Road, Kwai Fong",Service hours: 24 hours,Y,Y,Y,Y,Y,0326,0327,0328,,,,,,,,22.35784,114.12693
10076,Hong Kong,New Territories,New Territories Kwai Tsing,Kwai Tsing,Kwai Chung - Kwai Chung Estate,"Open space beneath the escalator facing Shop 102, 1/F, Kwai Chung Shopping Centre, Kwai Chung Estate, Kwai Chung",Service hours: 24 hours,,,,,,7436,,,,,,,,,,22.367488,114.127779
10077,Hong Kong,New Territories,New Territories Kwai Tsing,Kwai Tsing,Kwai Chung - Shek Lei Shopping Centre Phase II,"ATM 3, 2/F, Shek Lei Shopping Centre Phase II, Kwai Chung",Service hours: 6:00 am - 12:00 am,,,,,,6546,,,,,,,,,,22.36542,114.139299
10078,Hong Kong,New Territories,New Territories Kwai Tsing,Kwai Tsing,Kwai Chung - Shek Yam Shopping Centre,"ATM 2, LG1/F, Shek Yam Shopping Centre, Kwai Chung",Service hours: 6:00 am - 12:00 am,,,,,,6556,,,,,,,,,,22.371187,114.138502
10079,Hong Kong,New Territories,New Territories Kwai Tsing,Kwai Tsing,Tsing Yi - Cheung Fat Plaza,"ATM No.2, 2/F, Cheung Fat Plaza, Tsing Yi",Service hours: 24 hours,,Y,,,,6536,,,,,,,,,,22.362442,114.103288
10080,Hong Kong,New Territories,New Territories Kwai Tsing,Kwai Tsing,Tsing Yi - Cheung Hang Shopping Centre,"ATM No.3, G/F, Cheung Hang Shopping Centre, Cheung Hang Estate, 6 Liu To Road, Tsing Yi",Service hours: 24 hours,,,,,,6396,,,,,,,,,,22.354651,114.097645
10081,Hong Kong,New Territories,New Territories Kwai Tsing,Kwai Tsing,Tsing Yi - Maritime Square,"Shop Unit 173A, 1/F, Maritime Square, 33 Tsing King Road, Tsing Yi",Service hours: 24 hours,,Y,,,Y,7636,7637,,,,,,,,,22.358168,114.107669
10082,Hong Kong,New Territories,New Territories Kwai Tsing,Kwai Tsing,Tsing Yi - Maritime Square,"Shop Units 308A-C, 3/F, Maritime Square, 33 Tsing King Road, Tsing Yi",Service hours: 24 hours,,,,,Y,0716,,,,,,,,,,22.358263,114.107535
10083,Hong Kong,New Territories,New Territories Kwai Tsing,Kwai Tsing,Tsing Yi - MTR Tsing Yi Station,"Shop 201, 2/F, MTR Tsing Yi Station (near Exit G to Maritime Square), Tsing Yi",Service hours: 6:00 am - 1:00 am,,Y,,,Y,6346,6347,,,,,,,,,22.358487,114.107261
10084,Hong Kong,New Territories,New Territories Kwai Tsing,Kwai Tsing,Tsing Yi - Tsing Yi Garden,"Shop No.9, G/F, Tsing Yi Garden, Tsing Yi",Service hours: 7:00 am - 11:00 pm,,,,,,7706,,,,,,,,,,22.353337,114.105596
10085,Hong Kong,New Territories,New Territories North,North,Fanling - Fanling Town Centre,"Shop 27B & 27C, level 2 of Fanling Town Centre, Fanling",Service hours: 24 hours,Y,Y,Y,Y,Y,0566,0567,,,,,,,,,22.49251,114.139155
10086,Hong Kong,New Territories,New Territories North,North,Fanling - Ka Fuk Shopping Centre,"ATM 4, G/F, Ka Fuk Shopping Centre, Fanling",Service hours: 24 hours,,,,,,6516,,,,,,,,,,22.493488,114.135633
10088,Hong Kong,New Territories,New Territories North,North,Sheung Shui - Choi Yuen Estate,"ATM 4, 3/F, Choi Yuen Plaza, 8 Choi Yuen Road, Sheung Shui",Service hours: 24 hours,,,,,,7696,,,,,,,,,,22.501332,114.126739
10089,Hong Kong,New Territories,New Territories North,North,Sheung Shui - Sheung Shui Centre Shopping Arcade,"Shop Nos. 1015-19, Level 1, Sheung Shui Centre Shopping Arcade, 3 Chi Cheong Road, Sheung Shui",Service hours: 24 hours,Y,Y,,Y,,6766,6767,,,,,,,,,22.501098,114.130703
10090,Hong Kong,New Territories,New Territories Sai Kung,Sai Kung,Sai Kung - The Hong Kong University of Science and Techology,"Entrance Piazza, The Hong Kong University of Science and Techology, Clear Water Bay, Sai Kung",Service hours: 24 hours,Y,,Y,Y,Y,1446,,,,,,,,,,22.337426,114.26297
10091,Hong Kong,New Territories,New Territories Sai Kung,Sai Kung,Tseung Kwan O - East Point City,"Shop No. 217B, Level 2, East Point City, 8 Chung Wa Road, Tseung Kwan O",Service hours: 24 hours,Y,Y,Y,Y,Y,0816,0817,,,,,,,,,22.316377,114.26496
10092,Hong Kong,New Territories,New Territories Sai Kung,Sai Kung,Tseung Kwan O - Metro City Plaza,"Shop 243, Level 2, Metro City Plaza I, 1 Wan Hang Road, Tseung Kwan O",Service hours: 24 hours,Y,Y,Y,Y,Y,1056,1057,,,,,,,,,22.321291,114.257345
10093,Hong Kong,New Territories,New Territories Sai Kung,Sai Kung,Tseung Kwan O - Ming Tak Estate,"Open Space opposite to shop 5, G/F, Ming Tak Shopping Centre, Tseung Kwan O",Service hours: 24 hours,,,,,,7416,,,,,,,,,,22.316367,114.268609
10094,Hong Kong,New Territories,New Territories Sai Kung,Sai Kung,Tseung Kwan O - The Lane,"Open space near the Entrance A of MTR Hang Hau Station, G/F, The Lane, No.15 Pui Shing Road, Hang Hau, Tseung Kwan O",Service hours: 24 hours,,Y,,,Y,7616,7617,,,,,,,,,22.315722,114.264349
10095,Hong Kong,New Territories,New Territories Sai Kung,Sai Kung,Tseung Kwan O - Nan Fung Plaza,"Atrium at 1/F (Near Shop B108), Nan Fung Plaza, No.8 Pui Shing Road, Tseung Kwan O",Service hours: 7:00 am - 12:00 am,,,,,,6376,,,,,,,,,,22.31468,114.264167
10096,Hong Kong,New Territories,New Territories Sai Kung,Sai Kung,Tseung Kwan O - Park Central,"Shop 156, Level 1, Park Central, 9 Tong Tak Street, Tseung Kwan",Service hours: 6:00 am - 11:00 pm,Y,Y,Y,Y,Y,1356,1357,,,,,,,,,22.308076,114.258341
10097,Hong Kong,New Territories,New Territories Sai Kung,Sai Kung,Tseung Kwan O - Sheung Tak Shopping Centre,"ATM No.2, G/F, Sheung Tak Shopping Centre, Sheung Tak Estate, Tseung Kwan O",Service hours: 24 hours,,Y,,,,6436,,,,,,,,,,22.310969,114.258803
10098,Hong Kong,New Territories,New Territories Sha Tin,Sha Tin,Ma On Shan - Chung On Estate,"Open space next to the security counter, G/F, Chung On Shopping Centre, Chung On Estate, Ma On Shan",Service hours: 24 hours,,,,,Y,7446,,,,,,,,,,22.422045,114.226762
10099,Hong Kong,New Territories,New Territories Sha Tin,Sha Tin,Ma On Shan - Ma On Shan Plaza,"Shop Nos. 318-322, Level 3, Ma On Shan Plaza, 608 Sai Sha Road, Ma On Shan",Service hours: 24 hours,Y,,Y,Y,Y,0836,0837,,,,,,,,,22.425587,114.231299
10100,Hong Kong,New Territories,New Territories Sha Tin,Sha Tin,Shatin - Kwong Yuen Shopping Centre,"ATM 2, G/F, Kwong Yuen Shopping Centre, Shatin",Service hours: 24 hours,,,,,,6596,,,,,,,,,,22.380649,114.215281
10101,Hong Kong,New Territories,New Territories Sha Tin,Sha Tin,Shatin - Shatin Plaza,"Shop No. 4, Level 1, Shatin Plaza, Shatin ",Service hours: 24 hours,Y,Y,Y,Y,,0576,0577,,,,,,,,,22.383193,114.189373
10102,Hong Kong,New Territories,New Territories Sha Tin,Sha Tin,Shatin - The Chinese University of Hong Kong,"G/F, Benjamin Franklin Centre, The Chinese University of Hong Kong, Shatin",Service hours: 24 hours,,,,,,7076,,,,,,,,,,22.418299,114.205434
10103,Hong Kong,New Territories,New Territories Sha Tin,Sha Tin,Shatin - The Chinese University of Hong Kong,"Room 108, 1/F, Pommerenke Student Centre, Pond Crescent, The Chinese University of Hong Kong, Shatin.",Service hours: 24 hours,Y,,,,,1396,,,,,,,,,,22.416828,114.208759
10104,Hong Kong,New Territories,New Territories Sha Tin,Sha Tin,Shatin - The Chinese University of Hong Kong,"G/F, Staff Student Centre - Leung Hung Kee Building, New Asia College, The Chinese University of Hong Kong, Shatin",Service hours: Monday - Saturday (8:00 a.m. to 10:45 p.m.) Sun & Public holidays (9:00 a.m. to 9:00 p.m.),,,,,Y,6726,,,,,,,,,,22.42081,114.209285
10105,Hong Kong,New Territories,New Territories Sha Tin,Sha Tin,Shatin - Wo Che Estate,"Address Open space near Shop No. 56, Wo Che Shopping Centre, Wo Che Estate, Shatin",Service hours: 24 hours,,,,,,7196,,,,,,,,,,22.38734,114.195625
10106,Hong Kong,New Territories,New Territories Sha Tin,Sha Tin,Shatin - Yu Chui Shopping Centre,"ATM No. 3 at open space, Yu Chui Shopping Centre, Yu Chui Court, Ngau Pei Sha Street, Shatin",Service hours: 6:00 am - 12:00 am,,,,,,6416,,,,,,,,,,22.381613,114.205324
10107,Hong Kong,New Territories,New Territories Sha Tin,Sha Tin,Tai Wai - Mei Tin Estate,"Opposite to Shop 104, 1/F, Mei Tin Shopping Centre, Mei Tin Estate, Tai Wai",Service hours: 24 hours,,,,,,7656,,,,,,,,,,22.376146,114.171046
10108,Hong Kong,New Territories,New Territories Sha Tin,Sha Tin,Tai Wai - Tai Wai Road,"G/F, 16-18 Tai Wai Road, Cheung Fung Mansion, Tai Wai",Service hours: 24 hours,Y,Y,Y,Y,,0596,0597,,,,,,,,,22.375861,114.177518
10109,Hong Kong,New Territories,New Territories Tai Po,Tai Po,Tai Po - Kwong Fuk Estate,"ATM no. 4 at Level 4, Kwong Fuk Shopping Centre, Kwong Fuk Estate, Tai Po",Service hours: 24 hours,,,,,,7236,,,,,,,,,,22.448241,114.174534
10110,Hong Kong,New Territories,New Territories Tai Po,Tai Po,Tai Po - Tai Po Market,"G/F, 62-66 Po Heung Street, Tai Po Market, Tai Po",Service hours: 24 hours,Y,Y,Y,Y,,0516,0517,0518,0519,,,,,,,22.447672,114.166511
10111,Hong Kong,New Territories,New Territories Tai Po,Tai Po,Tai Po - Tai Wo Estate,"Shop S229E, Tai Wo Plaza, Tai Wo Estate, Tai Po",Service hours: 24 hours,,,,,,7486,,,,,,,,,,22.450985,114.161776
10112,Hong Kong,New Territories,New Territories Tai Po,Tai Po,Tai Po - The Education University of Hong Kong,"Room C2019, Hong Kong Institute of Education, 10 Lo Ping Road, Tai Po",Service hours: 24 hours,,,,,,7036,,,,,,,,,,22.466823,114.194208
10113,Hong Kong,New Territories,New Territories Tai Po,Tai Po,Tai Po - The Education University of Hong Kong,"Room C-P-12, Podium, Central Facilities Building, 10 Lo Ping Road, Tai Po","Service hours: Monday - Friday: 9:00 am - 5:00 pm, Saturday: 9:00 am - 1:00 pm (Closed on Sunday)",Y,,Y,,,0956,,,,,,,,,,22.46902,114.194228
10114,Hong Kong,New Territories,New Territories Tsuen Wan,Tsuen Wan,Tsuen Wan - Tsuen Wan Fou Wah Centre,"Shop B, 2/F, Fou Wah Centre, 210 Castle Peak Road, Tsuen Wan","Service hours: Monday - Friday: 9:00 am - 5:00 pm, Saturday: 9:00 am - 1:00 pm (Closed on Sunday)",Y,,Y,Y,,1486,,,,,,,,,,22.37287,114.118319
10115,Hong Kong,New Territories,New Territories Tsuen Wan,Tsuen Wan,Tsuen Wan - Tsuen Wan Fou Wah i-Financial Centre,"Shop 1B, 1/F, Fou Wah Centre, 210 Castle Peak Road, Tsuen Wan",Service hours: 24 hours,Y,Y,,Y,,6216,6217,6218,6219,,,,,,,22.37287,114.118319
10116,Hong Kong,New Territories,New Territories Tsuen Wan,Tsuen Wan,Tsuen Wan - Tsuen Wan Plaza,"Open area near Elevator No.30 Basement 1, Tsuen Wan Plaza, 4-30 Tai Po Street, Tsuen Wan",Service hours: 7:00 am - 11:00 pm,,,,,,7156,,,,,,,,,,22.370425,114.111772
10117,Hong Kong,New Territories,New Territories Tuen Mun,Tuen Mun,Tuen Mun - Butterfly Plaza,"ATM 2, Level 2, Butterfly Plaza, Tuen Mun",Service hours: 6:00 am - 12:00 am,,,,,,6526,,,,,,,,,,22.374824,113.963456
10118,Hong Kong,New Territories,New Territories Tuen Mun,Tuen Mun,Tuen Mun - Lingnan University,"Shop MBG 13, Patrick Lee Wan Keung Academic Building, Lingnan University, 8 Castle Peak Road, Tuen Mun",Service hours: 24 hours,Y,,Y,Y,Y,0826,,,,,,,,,,22.410334,113.982899
10119,Hong Kong,New Territories,New Territories Tuen Mun,Tuen Mun,Tuen Mun - Po Tin Interim Housing Estate,"Open space near the Main Entrance adjacent to Shop No. 10, G/F, Po Tin Shopping Centre, Po Tin Interim Housing Estate, Tuen Mun",Service hours: 7:00 am - 12:00 am,,,,,,7246,,,,,,,,,,22.409343,113.966653
10120,Hong Kong,New Territories,New Territories Tuen Mun,Tuen Mun,Tuen Mun - Sam Shing Estate,"Open space opposite to Shop 3, G/F, Commercial Centre, Sam Shing Estate, Tuen Mun",Service hours: 24 hours,,,,,,7276,,,,,,,,,,22.381066,113.978114
10121,Hong Kong,New Territories,New Territories Tuen Mun,Tuen Mun,Tuen Mun - Tuen Mun Town Plaza,"Shop Nos. 2-10, UG/F, Tuen Mun Town Plaza Phase II, 3 Tuen Lung Street, Tuen Mun",Service hours: 7:00 am - 12:00 am,Y,Y,Y,Y,Y,0496,0497,0498,,,,,,,,22.393852,113.976088
10122,Hong Kong,New Territories,New Territories Yuen Long,Yuen Long,Tin Shui Wai - Fortune Kingswood,"Shop 103 & 103A, 1/F, Phase 2, Fortune Kingswood, 18 Tin Yan Road, Tin Shui Wai",Service hours: 8:30 am - 10:00 pm,,,,,Y,7476,,,,,,,,,,22.45713,114.004396
10123,Hong Kong,New Territories,New Territories Yuen Long,Yuen Long,Tin Shui Wai - Tin Chak Estate,"Open Space beside escalator opposite to Shop 5, G/F, Tin Chak Shopping Centre, Tin Chak Estate, Tin Shui Wai",Service hours: 6:00 am - 1:00 am,,,,,Y,7646,7647,,,,,,,,,22.46839,113.99869
10124,Hong Kong,New Territories,New Territories Yuen Long,Yuen Long,Tin Shui Wai - Tin Yiu Plaza,"ATM 1, G/F, Tin Yiu Plaza, 2 Tin Wu Road, Tin Shui Wai",Service hours: 6:00 am - 12:00 am,,,,,,6736,,,,,,,,,,22.450977,114.002353
10125,Hong Kong,New Territories,New Territories Yuen Long,Yuen Long,Yuen Long - Castle Peak Road,"77 Castle Peak Road, Yuen Long",Service hours: 24 hours,Y,Y,Y,Y,,0426,0427,0428,,,,,,,,22.444588,114.029541
10126,Hong Kong,New Territories,New Territories Yuen Long,Yuen Long,Yuen Long - Yuen Long Plaza,"1/F, Yuen Long Plaza, 249 - 251 Castle Peak Road, Yuen Long",Service hours: 7:00 am - 11:00 pm,,,,,Y,7316,,,,,,,,,,22.444895,114.023903
10127,Hong Kong,Outlying Island,Outlying Island Outlying Island,Outlying Island,Lantau Island - Silvermine Bay,"Shop A2, Silver Centre Building, Silvermine Bay, Lantau Island",Service hours: 24 hours,Y,,Y,Y,,1176,,,,,,,,,,22.264815,114.000631
10128,Hong Kong,Outlying Island,Outlying Island Outlying Island,Outlying Island,Lantau Island - Tai O,"G/F, 6-8 Market Street, Tai O, Lantau Island ",Service hours: 24 hours,Y,,Y,Y,,1156,,,,,,,,,,22.25418,113.862169
10129,Hong Kong,Outlying Island,Outlying Island Outlying Island,Outlying Island,Tung Chung - Fu Tung Estate,"Shop No. 11, G/F, Fu Tung Plaza, Fu Tung Estate, Tung Chung, Lantau Island",Service hours: 24 hours,Y,Y,Y,Y,Y,0946,,,,,,,,,,22.28849,113.941964
10130,Hong Kong,Outlying Island,Outlying Island Outlying Island,Outlying Island,Tung Chung - Yat Tung Shopping Centre,"ATM 4, G/F, Yat Tung Shopping Centre, Tung Chung, Lantau Island",Service hours: 7:00 am - 11:00 pm,,Y,,,,6606,,,,,,,,,,22.28141,113.934771
10131,Hong Kong,New Territories,New Territories Kwai Tsing,Kwai Tsing,Tsing Yi - MTR Tsing Yi Station,"ATM 15 & 16, 4/F MTR Station (near ticket vending machines), Tsing Yi",Service hours: 6:00 am - 1:00 am,,,,,,6756,6757,,,,,,,,,22.35851,114.1069657
10132,Hong Kong,Hong Kong Island,Hong Kong Island Central and Western,Central and Western,Central - General Post Office,"1/F, 2 Connaught Place, Central",Service hours: Monday to Saturday: 8:00 am - 6:00 pm (Closed on Sunday),,,,,Y,6816,,,,,,,,,,22.28361,114.159561
10133,Hong Kong,New Territories,New Territories Yuen Long,Yuen Long,Yuen Long - San Tin Post Office,"San Tin Post Office , 1A Castle Peak Road, San Tin Section, San Tin, Yuen Long",Service hours: Monday to Friday: 9:30 am - 4:30 pm Saturday: 9:30 am - 1:00 pm (Closed on Sunday),,,,,Y,6836,,,,,,,,,,22.499374,114.07819
10134,Hong Kong,Kowloon,Kowloon Yau Tsim Mong,Yau Tsim Mong,Mongkok - Hoi Fu Shopping Centre,"ATM 2 near the main escalator, 1/F, Hoi Fu Shopping Centre, 2 Hoi Ting Road, Mongkok, KLN",Service hours: 6:00 am - 12:00 midnight,,,,,Y,6856,,,,,,,,,,22.315624,114.164504
10135,Hong Kong,Kowloon,Kowloon Yau Tsim Mong,Yau Tsim Mong,Yaumatei - MTR Yaumatei Station,"Shop 2, MTR Yaumatei Station, Kowloon (near Exit D to Waterloo Road)",Service hours: 6:00 am - 1:00 am,Y,Y,,,Y,6786,6787,,,,,,,,,22.3129,114.170815
10136,Hong Kong,New Territories,New Territories Kwai Tsing,Kwai Tsing,Kwai Hing - MTR Kwai Hing Station,"Shop 2, MTR Kwai Hing Station, NT (near Exit A to Kwai Hing Estate)",Service hours: 6:00 am - 1:00 am,,Y,,,,6796,6797,,,,,,,,,22.363789,114.131185
10137,Hong Kong,Hong Kong Island,Hong Kong Island Central and Western,Central and Western,Pokfulam - The University of Hong Kong,"Outdoor Area of 2/F Chong Yuet Ming Amenities Centre, Main Campus, The University of Hong Kong",Service hours: 24 hours,,,,,Y,6906,,,,,,,,,,22.282678,114.139076
10138,Hong Kong,Hong Kong Island,Hong Kong Island Central and Western,Central and Western,Central - MTR Hong Kong Station,"HOK ATM 15a & ATM 15b at L3 Tung Chung Line,Concourse level of MTR  Hong Kong Station, Hong Kong (near Exit D to Exchange Square III & Exit E to One ifc)",Service hours: 6:00 am - 12:30 am,,Y,,,,6866,6867,,,,,,,,,22.284738,114.158185
10139,Hong Kong,Hong Kong Island,Hong Kong Island Central and Western,Central and Western,The Peak - Matilda Int'l Hosp,"G/F at the entrance area of staff canteen, Grayburn Wing, Matilda International Hospital, 41 Mount Kellett Road, The Peak ",Service hours: 24 hours,,,,,,6926,,,,,,,,,,22.259664,114.149596
10140,Hong Kong,Hong Kong Island,Hong Kong Island Central and Western,Central and Western,Central - Des Voeux Road Central,"Near the main escalator on L/F Main Branch, 10 Des Voeux Road Central, Central",Service hours: 24 hours,Y,,Y,,Y,0146,,,,,,,,,,22.280881,114.158276
10142,Hong Kong,Kowloon,Kowloon Yau Tsim Mong,Yau Tsim Mong,Tsim Sha Tsui - Harbour City,"Lift lobby area at Level 3 of Tower 5, The Gateway, Harbour City, 3-27 Canton Road, Tsim Sha Tsui",Service hours: 10:00 am - 10:00 pm,Y,Y,,,Y,6946,6947,,,,,,,,,22.297639,114.168213
10143,Hong Kong,Hong Kong Island,Hong Kong Island Central and Western,Central and Western,Central - IFC Mall,"Shop 1105A, Podium Level 1, IFC Mall, 1 Harbour View Street, Central",Service hours: 10:00 am - 10:00 pm,,Y,,,,6966,,,,,,,,,,22.285657,114.158839
10144,Hong Kong,Kowloon,Kowloon Yau Tsim Mong,Yau Tsim Mong,Mongkok - MOKO,"Level 2, MOKO, Grand Century Place,193 Prince Edward Road West, Mongkok, Kowloon",Service hours: 10:00 am - 10:00 pm,,,,,,6976,,,,,,,,,,22.3231119,114.1721545
10145,Hong Kong,New Territories,New Territories Yuen Long,Yuen Long,Yuen Long - YOHO Mall,"Shop 1071, Level 1, YOHO MALL I, 9 Yuen Lung Street, Yuen Long",Service hours: 24 hours,Y,Y,Y,Y,Y,1536,1537,,,,,,,,,22.4435675,114.0368254
10146,Hong Kong,Kowloon,Kowloon Yau Tsim Mong,Yau Tsim Mong,Jordan - Everest Building,"Shop E & F, G/F, Everest Building , 241-243 Nathan Road, Jordan",Service hours: 24 hours,Y,,Y,Y,,1546,,,,,,,,,,22.3050959,114.1713386
10147,Hong Kong,Hong Kong Island,Hong Kong Island Wanchai,Wanchai,Wanchai - Convention Plaza Shopping Arcade,"Shop 101, 1/F, Convention Plaza Shopping Arcade, 1 Harbour Road, Wanchai",Service hours: 24 hours,Y,Y,Y,Y,Y,1556,,,,,,,,,,22.280957,114.173379
10148,Hong Kong,Kowloon,Kowloon Wong Tai Sin,Wong Tai Sin,Diamond Hill - Plaza Hollywood,"Shop 102A, Level 1, Plaza Hollywood, 3 Lung Poon Street, Diamond Hill",Service hours: 7:00 am - 12:00 midnight,Y,Y,Y,Y,Y,0466,0467,,,,,,,,,22.340358,114.202356
10149,Hong Kong,Hong Kong Island,Hong Kong Island Central and Western,Central and Western,Admiralty - Pacific Place,"Shop 355, Pacific Place, 88 Queensway, Admiralty",Service hours: 24 hours,Y,Y,,,Y,6996,6997,,,,,,,,,22.2772226,114.1650717
10150,Hong Kong,Kowloon,Kowloon Kowloon City,Kowloon City,Hung Hom - Wonderful Worlds of Whampoa,"Shop 12G2, G/F, Site 12, Wonderful Worlds of Whampoa, Hunghom",Service hours: 7:00 am - 12:00 midnight,Y,Y,,Y,Y,3006,3007,,,,,,,,,22.305995,114.190999
10151,Hong Kong,New Territories,New Territories Tsuen Wan,Tsuen Wan,Tsuen Wan - 313 Sha Tsui Road,"Shop 5, G/F, Chung On Building, 297-313 Sha Tsui Road, Tsuen Wan",Service hours: 24 hours,Y,,Y,Y,,0297,,,,,,,,,,22.3691242,114.1180412
10152,Hong Kong,New Territories,New Territories Yuen Long,Yuen Long,Tin Shui Wai - One Sky Mall,"Shop 1095-1096, 1/F, One Sky Mall, 8 Tin Sau Road, Tin Shui Wai",Service hours: 7:00 am - 23:00 pm,Y,Y,,Y,Y,3016,3017,,,,,,,,,22.4647433,114.0030365
10153,Hong Kong,Hong Kong Island,Hong Kong Island Eastern,Eastern,Siu Sai Wan - Siu Sai Wan Plaza,"1/F, Siu Sai Wan Plaza, 10 Siu Sai Wan Road, Siu Sai Wan, Hong Kong",Service hours: 24 hours,Y,,,,Y,3026,,,,,,,,,,22.2627197,114.2487055
10154,Hong Kong,Hong Kong Island,Hong Kong Island Southern,Southern,Wong Chuk Hang - Gleneagles Hong Kong Hospital,"G/F lobby area of Gleneagles Hong Kong Hospital, 1 Nam Fung Path, Wong Chuk Hang",Service hours: 24 hours,,,,,,3036,,,,,,,,,,22.2518356,114.1764725
10155,Hong Kong,Kowloon,Kowloon Yau Tsim Mong,Yau Tsim Mong,Tsim Sha Tsui - Carnarvon Plaza,"G/F, Carnarvon Plaza, 20 Carnarvon Road, Tsim Sha Tsui",Service hours: 6:00 am - 1:00 am,Y,Y,,Y,Y,3046,3047,,,,,,,,,22.2991131,114.1730584
10156,Hong Kong,Hong Kong Island,Hong Kong Island Wanchai,Wanchai,Causeway Bay - The Sharp,"G/F, The Sharp,  11 Sharp Street East, Causeway Bay, Hong Kong",Service hours: 24 hours,Y,Y,Y,Y,,1516,1517,,,,,,,,,22.277942,114.182383
10157,Hong Kong,Hong Kong Island,Hong Kong Island Central and Western,Central and Western,Central - 33 Des Voeux Road,"5/F, 33 Des Voeux Road Central, Central","Service hours: Monday - Friday (9:00 am - 5:00 pm), Sat (9:00 am - 1:00 pm)",Y,,Y,Y,Y,0406,,,,,,,,,,22.283037,114.157263
10158,Hong Kong,Kowloon,Kowloon Kwun Tong,Kwun Tong,Kwun Tong - 7 Hong Ning Road,"7 Hong Ning Road, Kwun Tong",Service hours: 24 hours,Y,,,,,3076,,,,,,,,,,22.314036,114.223249
10159,Hong Kong,New Territories,New Territories North,North,Fanling - Regentville,"L1 ATM, Regentville, 8 Wo Mun Street, Luen Wo Hui, Fanling, New Territories",Service hours: 6:00 am - 12:00 midnight,Y,Y,,,Y,3056,,,,,,,,,,22.500947,114.143849
10160,Hong Kong,Kowloon,Kowloon Wong Tai Sin,Wong Tai Sin,Lok Fu - Lok Fu Plaza,"ATMs at Atrium of Lok Fu Plaza, Wang Tau Hom ",Service hours: 24 hours,Y,Y,,,Y,6986,6987,6988,,,,,,,,22.338884,114.187042
10161,Hong Kong,Kowloon,Kowloon Sham Shui Po,Sham Shui Po,Cheung Sha Wan - Castle Peak Road,"At the main entrance of Heya Crystal Shopping Centre G/F 399 Castle Peak Road, Cheung Sha Wan, Kowloon",Service hours: 6:30 am - 12:00 midnight,,,,,Y,3116,,,,,,,,,,22.339148,114.154935
10162,Hong Kong,Kowloon,Kowloon Yau Tsim Mong,Yau Tsim Mong,Mong Kok - T.O.P.,"Shop G07, G/F, T.O.P This is Our Place at 700 Nathan Road, Mongkok",Service hours: 24 hours,Y,,,,,3066,3067,,,,,,,,,22.320729,114.16934
